{"type": "FeatureCollection", "features": [ {"type": "Feature", "properties": {"norad_id": 62339, "name": "GPS BIII-7  (PRN 01)", "group": "gps-ops", "lat": -4.287598433093567, "lon": 165.08752364007637, "alt_km": 20211.579673212276, "timestamp": "2025-12-04T15:47:54.356645+00:00", "meta": {"OBJECT_NAME": "GPS BIII-7  (PRN 01)", "OBJECT_ID": "2024-242A", "EPOCH": "2025-12-04T03:38:20.685120", "MEAN_MOTION": 2.00567235, "ECCENTRICITY": 0.00117247, "INCLINATION": 54.9261, "RA_OF_ASC_NODE": 342.0885, "ARG_OF_PERICENTER": 343.4986, "MEAN_ANOMALY": 195.9397, "EPHEMERIS_TYPE": 0, "CLASSIFICATION_TYPE": "U", "NORAD_CAT_ID": 62339, "ELEMENT_SET_NO": 999, "REV_AT_EPOCH": 734, "BSTAR": 0, "MEAN_MOTION_DOT": -7.2e-07, "MEAN_MOTION_DDOT": 0}, "tle": {"line1": "1 62339U 24242A   25338.15162830 -.00000072  00000+0  00000+0 0  9992", "line2": "2 62339  54.9261 342.0885 0011724 343.4986 195.9397  2.00567235  7341"}}, "geometry": {"type": "Point", "coordinates": [165.08752364007637, -4.287598433093567]}}, {"type": "Feature", "properties": {"norad_id": 64202, "name": "GPS BIII-8  (PRN 21)", "group": "gps-ops", "lat": 12.27278066901868, "lon": 47.71108205971708, "alt_km": 20176.380113373714, "timestamp": "2025-12-04T15:47:54.356658+00:00", "meta": {"OBJECT_NAME": "GPS BIII-8  (PRN 21)", "OBJECT_ID": "2025-116A", "EPOCH": "2025-12-03T06:10:25.375296", "MEAN_MOTION": 2.00558491, "ECCENTRICITY": 0.0004994, "INCLINATION": 55.0986, "RA_OF_ASC_NODE": 39.0246, "ARG_OF_PERICENTER": 306.9577, "MEAN_ANOMALY": 136.4728, "EPHEMERIS_TYPE": 0, "CLASSIFICATION_TYPE": "U", "NORAD_CAT_ID": 64202, "ELEMENT_SET_NO": 999, "REV_AT_EPOCH": 394, "BSTAR": 0, "MEAN_MOTION_DOT": -6.8e-07, "MEAN_MOTION_DDOT": 0}, "tle": {"line1": "1 64202U 25116A   25337.25723814 -.00000068  00000+0  00000+0 0  9994", "line2": "2 64202  55.0986  39.0246 0004994 306.9577 136.4728  2.00558491  3947"}}, "geometry": {"type": "Point", "coordinates": [47.71108205971708, 12.27278066901868]}}]}